[{"OBJECT_NAME":"STARLINK-32606","OBJECT_ID":"2024-210V","EPOCH":"2026-03-08T07:46:58.635264","MEAN_MOTION":15.27608245,"ECCENTRICITY":0.00022434,"INCLINATION":43.0008,"RA_OF_ASC_NODE":187.3144,"ARG_OF_PERICENTER":295.6512,"MEAN_ANOMALY":64.4108,"EPHEMERIS_TYPE":0,"CLASSIFICATION_TYPE":"U","NORAD_CAT_ID":61978,"ELEMENT_SET_NO":999,"REV_AT_EPOCH":7467,"BSTAR":0.0014874755,"MEAN_MOTION_DOT":0.00040934,"MEAN_MOTION_DDOT":0},{"OBJECT_NAME":"ARCSTONE","OBJECT_ID":"2025-135N","EPOCH":"2026-03-09T21:21:29.017152","MEAN_MOTION":15.28638458,"ECCENTRICITY":0.00041199,"INCLINATION":97.4495,"RA_OF_ASC_NODE":185.9194,"ARG_OF_PERICENTER":166.7863,"MEAN_ANOMALY":193.3485,"EPHEMERIS_TYPE":0,"CLASSIFICATION_TYPE":"U","NORAD_CAT_ID":64540,"ELEMENT_SET_NO":999,"REV_AT_EPOCH":3984,"BSTAR":0.00094899777,"MEAN_MOTION_DOT":0.00026427,"MEAN_MOTION_DDOT":0}]
