STARLINK-32606          
1 61978U 24210V   26067.32428976  .00040934  00000+0  14875-2 0  9998
2 61978  43.0008 187.3144 0002243 295.6512  64.4108 15.27608245 74674
ARCSTONE                
1 64540U 25135N   26068.88991918  .00026427  00000+0  94900-3 0  9995
2 64540  97.4495 185.9194 0004120 166.7863 193.3485 15.28638458 39847
